STARLINK-35556          
1 66238U 25245E   25319.50003471 -.01999442  00000+0 -16483-1 0  9995
2 66238  53.1588  98.9650 0001386  76.6537  78.4629 15.72691269  3722
STARLINK-35554          
1 66239U 25245F   25319.50003471 -.01998616  00000+0 -16479-1 0  9993
2 66239  53.1590  98.9609 0001314  69.4915  87.5450 15.72688068  3569
STARLINK-35546          
1 66240U 25245G   25319.50003471 -.02013634  00000+0 -16610-1 0  9991
2 66240  53.1592  98.9566 0001216  63.6310  95.3144 15.72701708  3723
STARLINK-35497          
1 66241U 25245H   25319.50003471 -.02001045  00000+0 -16501-1 0  9994
2 66241  53.1591  98.9528 0001159  69.6732  91.1976 15.72689955  3671
STARLINK-35480          
1 66242U 25245J   25319.50003471 -.02003394  00000+0 -16520-1 0  9995
2 66242  53.1588  98.9415 0001396  92.0692  74.5534 15.72691407  3727
STARLINK-35495          
1 66243U 25245K   25319.50003471 -.02007002  00000+0 -16554-1 0  9993
2 66243  53.1587  98.9498 0001113  88.3218  74.4650 15.72694119  3728
STARLINK-35517          
1 66244U 25245L   25318.25002315  .00126983  00000+0  85863-3 0  9998
2 66244  53.1580 105.1456 0001353 115.9026 161.6914 15.74180424  3315
STARLINK-35503          
1 66245U 25245M   25319.50003471 -.01998167  00000+0 -16476-1 0  9998
2 66245  53.1592  98.9360 0001227  77.5513  90.9911 15.72686124  3672
STARLINK-35434          
1 66246U 25245N   25319.50003471 -.02010524  00000+0 -16584-1 0  9992
2 66246  53.1573  98.9320 0001149  72.4395  98.0095 15.72698372  3516
STARLINK-35481          
1 66247U 25245P   25319.50003471 -.02005703  00000+0 -16542-1 0  9990
2 66247  53.1592  98.9280 0001211  85.8488  86.5236 15.72693010  3720
STARLINK-35416          
1 66248U 25245Q   25319.50003471 -.02010215  00000+0 -16580-1 0  9997
2 66248  53.1591  98.9247 0001228  66.9988 107.2822 15.72698765  3674
STARLINK-35304          
1 66249U 25245R   25319.50003471 -.02006897  00000+0 -16552-1 0  9998
2 66249  53.1592  98.9123 0001136  71.4807 108.5535 15.72696010  3517
